[{"OBJECT_NAME":"STARLINK-31426","OBJECT_ID":"2024-049U","EPOCH":"2026-03-09T08:41:40.495200","MEAN_MOTION":15.27588405,"ECCENTRICITY":0.00010298,"INCLINATION":43.0019,"RA_OF_ASC_NODE":145.5804,"ARG_OF_PERICENTER":287.9393,"MEAN_ANOMALY":72.1347,"EPHEMERIS_TYPE":0,"CLASSIFICATION_TYPE":"U","NORAD_CAT_ID":59249,"ELEMENT_SET_NO":999,"REV_AT_EPOCH":11234,"BSTAR":-0.00017413716,"MEAN_MOTION_DOT":-5.052e-5,"MEAN_MOTION_DDOT":0},{"OBJECT_NAME":"CZ-4C R\/B","OBJECT_ID":"2015-069B","EPOCH":"2026-03-09T18:13:41.887776","MEAN_MOTION":15.30824061,"ECCENTRICITY":0.00587215,"INCLINATION":97.486,"RA_OF_ASC_NODE":137.7913,"ARG_OF_PERICENTER":156.3643,"MEAN_ANOMALY":204.0316,"EPHEMERIS_TYPE":0,"CLASSIFICATION_TYPE":"U","NORAD_CAT_ID":41039,"ELEMENT_SET_NO":999,"REV_AT_EPOCH":56689,"BSTAR":0.0003480254,"MEAN_MOTION_DOT":0.00010856,"MEAN_MOTION_DDOT":0}]
